{"type": "FeatureCollection", "features": [ {"type": "Feature", "properties": {"norad_id": 46271, "name": "COSMOS 2251 DEB", "group": "cosmos-2251-debris", "lat": -34.343217377279615, "lon": 68.72829964577177, "alt_km": 742.2489853539473, "timestamp": "2025-12-11T18:59:46.474042+00:00", "meta": {"OBJECT_NAME": "COSMOS 2251 DEB", "OBJECT_ID": "1993-036BWT", "EPOCH": "2025-12-10T13:23:10.525344", "MEAN_MOTION": 14.51418765, "ECCENTRICITY": 0.0040241, "INCLINATION": 74.0479, "RA_OF_ASC_NODE": 82.3177, "ARG_OF_PERICENTER": 204.0304, "MEAN_ANOMALY": 155.8981, "EPHEMERIS_TYPE": 0, "CLASSIFICATION_TYPE": "U", "NORAD_CAT_ID": 46271, "ELEMENT_SET_NO": 999, "REV_AT_EPOCH": 84610, "BSTAR": 0.00059247, "MEAN_MOTION_DOT": 2.361e-05, "MEAN_MOTION_DDOT": 0}, "tle": {"line1": "1 46271U 93036BWT 25344.55776071  .00002361  00000+0  59247-3 0  9998", "line2": "2 46271  74.0479  82.3177 0040241 204.0304 155.8981 14.51418765846103"}}, "geometry": {"type": "Point", "coordinates": [68.72829964577177, -34.343217377279615]}}, {"type": "Feature", "properties": {"norad_id": 46430, "name": "COSMOS 2251 DEB", "group": "cosmos-2251-debris", "lat": 28.490250684511153, "lon": 7.1667191785366855, "alt_km": 746.200511873677, "timestamp": "2025-12-11T18:59:46.474052+00:00", "meta": {"OBJECT_NAME": "COSMOS 2251 DEB", "OBJECT_ID": "1993-036BWU", "EPOCH": "2025-12-03T09:00:26.936928", "MEAN_MOTION": 14.51043928, "ECCENTRICITY": 0.01031866, "INCLINATION": 73.9151, "RA_OF_ASC_NODE": 14.104, "ARG_OF_PERICENTER": 295.9829, "MEAN_ANOMALY": 63.073, "EPHEMERIS_TYPE": 0, "CLASSIFICATION_TYPE": "U", "NORAD_CAT_ID": 46430, "ELEMENT_SET_NO": 999, "REV_AT_EPOCH": 79547, "BSTAR": 0.0030362826, "MEAN_MOTION_DOT": 0.00012872, "MEAN_MOTION_DDOT": 0}, "tle": {"line1": "1 46430U 93036BWU 25337.37531177  .00012872  00000+0  30363-2 0  9998", "line2": "2 46430  73.9151  14.1040 0103186 295.9829  63.0730 14.51043928795476"}}, "geometry": {"type": "Point", "coordinates": [7.1667191785366855, 28.490250684511153]}}, {"type": "Feature", "properties": {"norad_id": 46432, "name": "COSMOS 2251 DEB", "group": "cosmos-2251-debris", "lat": -3.3050565701360397, "lon": -66.25415608358907, "alt_km": 874.0754970925527, "timestamp": "2025-12-11T18:59:46.474063+00:00", "meta": {"OBJECT_NAME": "COSMOS 2251 DEB", "OBJECT_ID": "1993-036BWW", "EPOCH": "2025-12-10T15:12:54.844704", "MEAN_MOTION": 13.36630678, "ECCENTRICITY": 0.047382, "INCLINATION": 73.872, "RA_OF_ASC_NODE": 114.6117, "ARG_OF_PERICENTER": 232.4487, "MEAN_ANOMALY": 146.831, "EPHEMERIS_TYPE": 0, "CLASSIFICATION_TYPE": "U", "NORAD_CAT_ID": 46432, "ELEMENT_SET_NO": 999, "REV_AT_EPOCH": 66938, "BSTAR": 0.0019144, "MEAN_MOTION_DOT": 1.863e-05, "MEAN_MOTION_DDOT": 0}, "tle": {"line1": "1 46432U 93036BWW 25344.63396811  .00001863  00000+0  19144-2 0  9993", "line2": "2 46432  73.8720 114.6117 0473820 232.4487 146.8310 13.36630678669381"}}, "geometry": {"type": "Point", "coordinates": [-66.25415608358907, -3.3050565701360397]}}, {"type": "Feature", "properties": {"norad_id": 47045, "name": "COSMOS 2251 DEB", "group": "cosmos-2251-debris", "lat": -58.14040767284472, "lon": -1.702011787501523, "alt_km": 754.9631092583322, "timestamp": "2025-12-11T18:59:46.474073+00:00", "meta": {"OBJECT_NAME": "COSMOS 2251 DEB", "OBJECT_ID": "1993-036BWZ", "EPOCH": "2025-12-08T18:12:30.966336", "MEAN_MOTION": 14.3889696, "ECCENTRICITY": 0.00302024, "INCLINATION": 74.0568, "RA_OF_ASC_NODE": 156.4972, "ARG_OF_PERICENTER": 298.2595, "MEAN_ANOMALY": 80.2379, "EPHEMERIS_TYPE": 0, "CLASSIFICATION_TYPE": "U", "NORAD_CAT_ID": 47045, "ELEMENT_SET_NO": 999, "REV_AT_EPOCH": 7748, "BSTAR": 0.00016053941, "MEAN_MOTION_DOT": 4.71e-06, "MEAN_MOTION_DDOT": 0}, "tle": {"line1": "1 47045U 93036BWZ 25342.75869174  .00000471  00000+0  16054-3 0  9994", "line2": "2 47045  74.0568 156.4972 0030202 298.2595  80.2379 14.38896960 77482"}}, "geometry": {"type": "Point", "coordinates": [-1.702011787501523, -58.14040767284472]}}, {"type": "Feature", "properties": {"norad_id": 47048, "name": "COSMOS 2251 DEB", "group": "cosmos-2251-debris", "lat": 54.448652055016574, "lon": 117.2758641048875, "alt_km": 628.3087368354172, "timestamp": "2025-12-11T18:59:46.474083+00:00", "meta": {"OBJECT_NAME": "COSMOS 2251 DEB", "OBJECT_ID": "1993-036BXC", "EPOCH": "2025-12-07T07:15:38.269728", "MEAN_MOTION": 14.52229932, "ECCENTRICITY": 0.0133232, "INCLINATION": 73.9782, "RA_OF_ASC_NODE": 329.4737, "ARG_OF_PERICENTER": 158.8085, "MEAN_ANOMALY": 264.4528, "EPHEMERIS_TYPE": 0, "CLASSIFICATION_TYPE": "U", "NORAD_CAT_ID": 47048, "ELEMENT_SET_NO": 999, "REV_AT_EPOCH": 59611, "BSTAR": 0.0016547605, "MEAN_MOTION_DOT": 7.524e-05, "MEAN_MOTION_DDOT": 0}, "tle": {"line1": "1 47048U 93036BXC 25341.30252627  .00007524  00000+0  16548-2 0  9999", "line2": "2 47048  73.9782 329.4737 0133232 158.8085 264.4528 14.52229932596117"}}, "geometry": {"type": "Point", "coordinates": [117.2758641048875, 54.448652055016574]}}, {"type": "Feature", "properties": {"norad_id": 47051, "name": "COSMOS 2251 DEB", "group": "cosmos-2251-debris", "lat": 19.809472470347387, "lon": -168.9651195314793, "alt_km": 965.5628731341776, "timestamp": "2025-12-11T18:59:46.474094+00:00", "meta": {"OBJECT_NAME": "COSMOS 2251 DEB", "OBJECT_ID": "1993-036BXF", "EPOCH": "2025-12-07T08:40:13.029888", "MEAN_MOTION": 13.67092269, "ECCENTRICITY": 0.03407698, "INCLINATION": 74.1016, "RA_OF_ASC_NODE": 192.3794, "ARG_OF_PERICENTER": 307.1463, "MEAN_ANOMALY": 234.2047, "EPHEMERIS_TYPE": 0, "CLASSIFICATION_TYPE": "U", "NORAD_CAT_ID": 47051, "ELEMENT_SET_NO": 999, "REV_AT_EPOCH": 59864, "BSTAR": 0.0022022876, "MEAN_MOTION_DOT": 2.731e-05, "MEAN_MOTION_DDOT": 0}, "tle": {"line1": "1 47051U 93036BXF 25341.36126192  .00002731  00000+0  22023-2 0  9996", "line2": "2 47051  74.1016 192.3794 0340769 307.1463 234.2047 13.67092269598645"}}, "geometry": {"type": "Point", "coordinates": [-168.9651195314793, 19.809472470347387]}}, {"type": "Feature", "properties": {"norad_id": 47052, "name": "COSMOS 2251 DEB", "group": "cosmos-2251-debris", "lat": -25.20009124769592, "lon": 169.80053157479819, "alt_km": 814.3795412625395, "timestamp": "2025-12-11T18:59:46.474130+00:00", "meta": {"OBJECT_NAME": "COSMOS 2251 DEB", "OBJECT_ID": "1993-036BXG", "EPOCH": "2025-12-10T17:46:39.199872", "MEAN_MOTION": 14.35475987, "ECCENTRICITY": 0.00579259, "INCLINATION": 74.0489, "RA_OF_ASC_NODE": 343.9911, "ARG_OF_PERICENTER": 58.7929, "MEAN_ANOMALY": 119.1053, "EPHEMERIS_TYPE": 0, "CLASSIFICATION_TYPE": "U", "NORAD_CAT_ID": 47052, "ELEMENT_SET_NO": 999, "REV_AT_EPOCH": 61760, "BSTAR": 0.00039499211, "MEAN_MOTION_DOT": 1.132e-05, "MEAN_MOTION_DDOT": 0}, "tle": {"line1": "1 47052U 93036BXG 25344.74073148  .00001132  00000+0  39499-3 0  9994", "line2": "2 47052  74.0489 343.9911 0057925  58.7929 119.1053 14.35475987617603"}}, "geometry": {"type": "Point", "coordinates": [169.80053157479819, -25.20009124769592]}}, {"type": "Feature", "properties": {"norad_id": 47053, "name": "COSMOS 2251 DEB", "group": "cosmos-2251-debris", "lat": -53.967988450365795, "lon": 98.72723005604209, "alt_km": 1316.0493553521637, "timestamp": "2025-12-11T18:59:46.474142+00:00", "meta": {"OBJECT_NAME": "COSMOS 2251 DEB", "OBJECT_ID": "1993-036BXH", "EPOCH": "2025-12-11T02:15:18.253728", "MEAN_MOTION": 13.59660001, "ECCENTRICITY": 0.03765467, "INCLINATION": 74.0597, "RA_OF_ASC_NODE": 256.721, "ARG_OF_PERICENTER": 70.6385, "MEAN_ANOMALY": 352.548, "EPHEMERIS_TYPE": 0, "CLASSIFICATION_TYPE": "U", "NORAD_CAT_ID": 47053, "ELEMENT_SET_NO": 999, "REV_AT_EPOCH": 28866, "BSTAR": 0.0019220925, "MEAN_MOTION_DOT": 2.258e-05, "MEAN_MOTION_DDOT": 0}, "tle": {"line1": "1 47053U 93036BXH 25345.09396127  .00002258  00000+0  19221-2 0  9999", "line2": "2 47053  74.0597 256.7210 0376546  70.6385 352.5480 13.59660001288664"}}, "geometry": {"type": "Point", "coordinates": [98.72723005604209, -53.967988450365795]}}, {"type": "Feature", "properties": {"norad_id": 47059, "name": "COSMOS 2251 DEB", "group": "cosmos-2251-debris", "lat": -65.17471582203288, "lon": -160.98791036375727, "alt_km": 538.6090261773679, "timestamp": "2025-12-11T18:59:46.474152+00:00", "meta": {"OBJECT_NAME": "COSMOS 2251 DEB", "OBJECT_ID": "1993-036BXP", "EPOCH": "2025-12-06T03:03:53.254944", "MEAN_MOTION": 15.11824975, "ECCENTRICITY": 0.0012241, "INCLINATION": 73.9837, "RA_OF_ASC_NODE": 249.1614, "ARG_OF_PERICENTER": 60.0281, "MEAN_ANOMALY": 7.7142, "EPHEMERIS_TYPE": 0, "CLASSIFICATION_TYPE": "U", "NORAD_CAT_ID": 47059, "ELEMENT_SET_NO": 999, "REV_AT_EPOCH": 8205, "BSTAR": 0.0045995756, "MEAN_MOTION_DOT": 0.00079589, "MEAN_MOTION_DDOT": 0}, "tle": {"line1": "1 47059U 93036BXP 25340.12769971  .00079589  00000+0  45996-2 0  9994", "line2": "2 47059  73.9837 249.1614 0012241  60.0281   7.7142 15.11824975 82057"}}, "geometry": {"type": "Point", "coordinates": [-160.98791036375727, -65.17471582203288]}}, {"type": "Feature", "properties": {"norad_id": 47062, "name": "COSMOS 2251 DEB", "group": "cosmos-2251-debris", "lat": 73.04062366148038, "lon": 149.07025431993583, "alt_km": 1104.0762973422816, "timestamp": "2025-12-11T18:59:46.474163+00:00", "meta": {"OBJECT_NAME": "COSMOS 2251 DEB", "OBJECT_ID": "1993-036BXS", "EPOCH": "2025-12-07T13:07:54.059808", "MEAN_MOTION": 13.71915602, "ECCENTRICITY": 0.03234523, "INCLINATION": 74.0847, "RA_OF_ASC_NODE": 86.7391, "ARG_OF_PERICENTER": 213.5714, "MEAN_ANOMALY": 158.9974, "EPHEMERIS_TYPE": 0, "CLASSIFICATION_TYPE": "U", "NORAD_CAT_ID": 47062, "ELEMENT_SET_NO": 999, "REV_AT_EPOCH": 55531, "BSTAR": 0.0031720462, "MEAN_MOTION_DOT": 4.156e-05, "MEAN_MOTION_DDOT": 0}, "tle": {"line1": "1 47062U 93036BXS 25341.54715347  .00004156  00000+0  31720-2 0  9991", "line2": "2 47062  74.0847  86.7391 0323452 213.5714 158.9974 13.71915602555314"}}, "geometry": {"type": "Point", "coordinates": [149.07025431993583, 73.04062366148038]}}]}